[{"OBJECT_NAME":"STARLINK-36413","OBJECT_ID":"2026-003E","EPOCH":"2026-03-09T12:19:17.810976","MEAN_MOTION":15.27603017,"ECCENTRICITY":0.00015836,"INCLINATION":43.002,"RA_OF_ASC_NODE":228.3477,"ARG_OF_PERICENTER":287.9271,"MEAN_ANOMALY":72.1408,"EPHEMERIS_TYPE":0,"CLASSIFICATION_TYPE":"U","NORAD_CAT_ID":67338,"ELEMENT_SET_NO":999,"REV_AT_EPOCH":879,"BSTAR":0.0011451229,"MEAN_MOTION_DOT":0.00031406,"MEAN_MOTION_DDOT":0},{"OBJECT_NAME":"COSMOS 1862","OBJECT_ID":"1987-055A","EPOCH":"2026-03-09T22:37:02.390592","MEAN_MOTION":15.30492139,"ECCENTRICITY":0.00097484,"INCLINATION":82.4856,"RA_OF_ASC_NODE":47.1862,"ARG_OF_PERICENTER":26.6325,"MEAN_ANOMALY":333.5414,"EPHEMERIS_TYPE":0,"CLASSIFICATION_TYPE":"U","NORAD_CAT_ID":18152,"ELEMENT_SET_NO":999,"REV_AT_EPOCH":8987,"BSTAR":0.00034125048,"MEAN_MOTION_DOT":0.00010107,"MEAN_MOTION_DDOT":0}]
